{"type": "FeatureCollection", "features": [ {"type": "Feature", "properties": {"norad_id": 44804, "name": "CARTOSAT-3", "group": "resource", "lat": -69.92107642852253, "lon": 78.8374759072791, "alt_km": 519.8443134688168, "timestamp": "2025-12-24T09:46:30.653204+00:00", "meta": {"OBJECT_NAME": "CARTOSAT-3", "OBJECT_ID": "2019-081A", "EPOCH": "2025-12-24T05:20:46.743936", "MEAN_MOTION": 15.19246521, "ECCENTRICITY": 0.0013669, "INCLINATION": 97.4566, "RA_OF_ASC_NODE": 57.6589, "ARG_OF_PERICENTER": 47.5289, "MEAN_ANOMALY": 312.7099, "EPHEMERIS_TYPE": 0, "CLASSIFICATION_TYPE": "U", "NORAD_CAT_ID": 44804, "ELEMENT_SET_NO": 999, "REV_AT_EPOCH": 33690, "BSTAR": 0.00020811, "MEAN_MOTION_DOT": 4.327e-05, "MEAN_MOTION_DDOT": 0}, "tle": {"line1": "1 44804U 19081A   25358.22276324  .00004327  00000+0  20811-3 0  9990", "line2": "2 44804  97.4566  57.6589 0013669  47.5289 312.7099 15.19246521336907"}}, "geometry": {"type": "Point", "coordinates": [78.8374759072791, -69.92107642852253]}}, {"type": "Feature", "properties": {"norad_id": 44819, "name": "GAOFEN-12 01", "group": "resource", "lat": -36.321022687982854, "lon": 178.58911393721186, "alt_km": 632.3496441073694, "timestamp": "2025-12-24T09:46:30.653215+00:00", "meta": {"OBJECT_NAME": "GAOFEN-12 01", "OBJECT_ID": "2019-082A", "EPOCH": "2025-12-24T03:56:03.341184", "MEAN_MOTION": 14.80670049, "ECCENTRICITY": 0.0002134, "INCLINATION": 97.8125, "RA_OF_ASC_NODE": 4.145, "ARG_OF_PERICENTER": 181.8183, "MEAN_ANOMALY": 178.3022, "EPHEMERIS_TYPE": 0, "CLASSIFICATION_TYPE": "U", "NORAD_CAT_ID": 44819, "ELEMENT_SET_NO": 999, "REV_AT_EPOCH": 32819, "BSTAR": 6.8998e-05, "MEAN_MOTION_DOT": 4.79e-06, "MEAN_MOTION_DDOT": 0}, "tle": {"line1": "1 44819U 19082A   25358.16392756  .00000479  00000+0  68998-4 0  9991", "line2": "2 44819  97.8125   4.1450 0002134 181.8183 178.3022 14.80670049328199"}}, "geometry": {"type": "Point", "coordinates": [178.58911393721186, -36.321022687982854]}}, {"type": "Feature", "properties": {"norad_id": 44873, "name": "CSG-1", "group": "resource", "lat": 29.673256089367918, "lon": 175.02926313924482, "alt_km": 620.4699410818857, "timestamp": "2025-12-24T09:46:30.653225+00:00", "meta": {"OBJECT_NAME": "CSG-1", "OBJECT_ID": "2019-092A", "EPOCH": "2025-12-24T04:46:46.535808", "MEAN_MOTION": 14.8215913, "ECCENTRICITY": 0.0001477, "INCLINATION": 97.8805, "RA_OF_ASC_NODE": 179.3507, "ARG_OF_PERICENTER": 85.4204, "MEAN_ANOMALY": 274.7178, "EPHEMERIS_TYPE": 0, "CLASSIFICATION_TYPE": "U", "NORAD_CAT_ID": 44873, "ELEMENT_SET_NO": 999, "REV_AT_EPOCH": 32555, "BSTAR": 6.611e-05, "MEAN_MOTION_DOT": 4.74e-06, "MEAN_MOTION_DDOT": 0}, "tle": {"line1": "1 44873U 19092A   25358.19914972  .00000474  00000+0  66110-4 0  9994", "line2": "2 44873  97.8805 179.3507 0001477  85.4204 274.7178 14.82159130325559"}}, "geometry": {"type": "Point", "coordinates": [175.02926313924482, 29.673256089367918]}}, {"type": "Feature", "properties": {"norad_id": 46277, "name": "NEMO-HD", "group": "resource", "lat": 65.90528071979381, "lon": -106.17743024310553, "alt_km": 437.69304606143487, "timestamp": "2025-12-24T09:46:30.653235+00:00", "meta": {"OBJECT_NAME": "NEMO-HD", "OBJECT_ID": "2020-061F", "EPOCH": "2025-12-24T04:36:35.240256", "MEAN_MOTION": 15.40555304, "ECCENTRICITY": 0.0001127, "INCLINATION": 97.219, "RA_OF_ASC_NODE": 57.1446, "ARG_OF_PERICENTER": 52.5755, "MEAN_ANOMALY": 307.5594, "EPHEMERIS_TYPE": 0, "CLASSIFICATION_TYPE": "U", "NORAD_CAT_ID": 46277, "ELEMENT_SET_NO": 999, "REV_AT_EPOCH": 29500, "BSTAR": 0.00028275, "MEAN_MOTION_DOT": 0.0001141, "MEAN_MOTION_DDOT": 0}, "tle": {"line1": "1 46277U 20061F   25358.19207454  .00011410  00000+0  28275-3 0  9993", "line2": "2 46277  97.2190  57.1446 0001127  52.5755 307.5594 15.40555304295004"}}, "geometry": {"type": "Point", "coordinates": [-106.17743024310553, 65.90528071979381]}}, {"type": "Feature", "properties": {"norad_id": 46984, "name": "SENTINEL-6A", "group": "resource", "lat": -62.94914882294868, "lon": 18.620382994711758, "alt_km": 1338.1963159222614, "timestamp": "2025-12-24T09:46:30.653246+00:00", "meta": {"OBJECT_NAME": "SENTINEL-6A", "OBJECT_ID": "2020-086A", "EPOCH": "2025-12-23T19:19:13.530144", "MEAN_MOTION": 12.80930767, "ECCENTRICITY": 0.00077496, "INCLINATION": 66.0398, "RA_OF_ASC_NODE": 139.3251, "ARG_OF_PERICENTER": 269.3952, "MEAN_ANOMALY": 90.6175, "EPHEMERIS_TYPE": 0, "CLASSIFICATION_TYPE": "U", "NORAD_CAT_ID": 46984, "ELEMENT_SET_NO": 999, "REV_AT_EPOCH": 23786, "BSTAR": -6.596775e-06, "MEAN_MOTION_DOT": -6.3e-07, "MEAN_MOTION_DDOT": 0}, "tle": {"line1": "1 46984U 20086A   25357.80501771 -.00000063  00000+0 -65968-5 0  9997", "line2": "2 46984  66.0398 139.3251 0007749 269.3952  90.6175 12.80930767237869"}}, "geometry": {"type": "Point", "coordinates": [18.620382994711758, -62.94914882294868]}}, {"type": "Feature", "properties": {"norad_id": 48079, "name": "GAOFEN-12 02", "group": "resource", "lat": -48.28564562673215, "lon": 163.29705007902038, "alt_km": 636.201930268252, "timestamp": "2025-12-24T09:46:30.653256+00:00", "meta": {"OBJECT_NAME": "GAOFEN-12 02", "OBJECT_ID": "2021-026A", "EPOCH": "2025-12-24T05:30:04.885344", "MEAN_MOTION": 14.8068814, "ECCENTRICITY": 0.0003564, "INCLINATION": 97.9857, "RA_OF_ASC_NODE": 352.1805, "ARG_OF_PERICENTER": 78.0345, "MEAN_ANOMALY": 282.1267, "EPHEMERIS_TYPE": 0, "CLASSIFICATION_TYPE": "U", "NORAD_CAT_ID": 48079, "ELEMENT_SET_NO": 999, "REV_AT_EPOCH": 25587, "BSTAR": 7.0085e-05, "MEAN_MOTION_DOT": 4.86e-06, "MEAN_MOTION_DDOT": 0}, "tle": {"line1": "1 48079U 21026A   25358.22922321  .00000486  00000+0  70085-4 0  9996", "line2": "2 48079  97.9857 352.1805 0003564  78.0345 282.1267 14.80688140255879"}}, "geometry": {"type": "Point", "coordinates": [163.29705007902038, -48.28564562673215]}}, {"type": "Feature", "properties": {"norad_id": 48268, "name": "PLEIADES NEO 3", "group": "resource", "lat": -22.65057933153721, "lon": 74.00046329513384, "alt_km": 629.8388734756663, "timestamp": "2025-12-24T09:46:30.653267+00:00", "meta": {"OBJECT_NAME": "PLEIADES NEO 3", "OBJECT_ID": "2021-034A", "EPOCH": "2025-12-24T05:00:57.130848", "MEAN_MOTION": 14.81669996, "ECCENTRICITY": 0.0001307, "INCLINATION": 97.8947, "RA_OF_ASC_NODE": 70.4855, "ARG_OF_PERICENTER": 89.7191, "MEAN_ANOMALY": 270.4171, "EPHEMERIS_TYPE": 0, "CLASSIFICATION_TYPE": "U", "NORAD_CAT_ID": 48268, "ELEMENT_SET_NO": 999, "REV_AT_EPOCH": 25174, "BSTAR": -6.9575e-05, "MEAN_MOTION_DOT": -5.99e-06, "MEAN_MOTION_DDOT": 0}, "tle": {"line1": "1 48268U 21034A   25358.20899457 -.00000599  00000+0 -69575-4 0  9995", "line2": "2 48268  97.8947  70.4855 0001307  89.7191 270.4171 14.81669996251749"}}, "geometry": {"type": "Point", "coordinates": [74.00046329513384, -22.65057933153721]}}, {"type": "Feature", "properties": {"norad_id": 49070, "name": "PLEIADES NEO 4", "group": "resource", "lat": 22.334332960814788, "lon": -106.05483697128783, "alt_km": 623.3836753067108, "timestamp": "2025-12-24T09:46:30.653277+00:00", "meta": {"OBJECT_NAME": "PLEIADES NEO 4", "OBJECT_ID": "2021-073E", "EPOCH": "2025-12-24T04:12:18.652032", "MEAN_MOTION": 14.81671984, "ECCENTRICITY": 0.0001339, "INCLINATION": 97.8947, "RA_OF_ASC_NODE": 70.4484, "ARG_OF_PERICENTER": 93.009, "MEAN_ANOMALY": 267.1276, "EPHEMERIS_TYPE": 0, "CLASSIFICATION_TYPE": "U", "NORAD_CAT_ID": 49070, "ELEMENT_SET_NO": 999, "REV_AT_EPOCH": 23545, "BSTAR": 1.4221e-05, "MEAN_MOTION_DOT": 6e-07, "MEAN_MOTION_DDOT": 0}, "tle": {"line1": "1 49070U 21073E   25358.17521588  .00000060  00000+0  14221-4 0  9992", "line2": "2 49070  97.8947  70.4484 0001339  93.0090 267.1276 14.81671984235459"}}, "geometry": {"type": "Point", "coordinates": [-106.05483697128783, 22.334332960814788]}}, {"type": "Feature", "properties": {"norad_id": 49260, "name": "LANDSAT 9", "group": "resource", "lat": -43.318420526916164, "lon": -121.47411983500561, "alt_km": 709.6945238778371, "timestamp": "2025-12-24T09:46:30.653305+00:00", "meta": {"OBJECT_NAME": "LANDSAT 9", "OBJECT_ID": "2021-088A", "EPOCH": "2025-12-24T03:48:25.627680", "MEAN_MOTION": 14.57109202, "ECCENTRICITY": 0.0001105, "INCLINATION": 98.2079, "RA_OF_ASC_NODE": 66.1034, "ARG_OF_PERICENTER": 93.1257, "MEAN_ANOMALY": 267.0068, "EPHEMERIS_TYPE": 0, "CLASSIFICATION_TYPE": "U", "NORAD_CAT_ID": 49260, "ELEMENT_SET_NO": 999, "REV_AT_EPOCH": 22551, "BSTAR": 0.00010495, "MEAN_MOTION_DOT": 4.28e-06, "MEAN_MOTION_DDOT": 0}, "tle": {"line1": "1 49260U 21088A   25358.15862995  .00000428  00000+0  10495-3 0  9993", "line2": "2 49260  98.2079  66.1034 0001105  93.1257 267.0068 14.57109202225517"}}, "geometry": {"type": "Point", "coordinates": [-121.47411983500561, -43.318420526916164]}}, {"type": "Feature", "properties": {"norad_id": 51444, "name": "CSG-2", "group": "resource", "lat": -29.899896578905913, "lon": -5.013902706467836, "alt_km": 629.177239052201, "timestamp": "2025-12-24T09:46:30.653319+00:00", "meta": {"OBJECT_NAME": "CSG-2", "OBJECT_ID": "2022-008A", "EPOCH": "2025-12-24T03:58:10.133184", "MEAN_MOTION": 14.82153915, "ECCENTRICITY": 0.000149, "INCLINATION": 97.8803, "RA_OF_ASC_NODE": 179.316, "ARG_OF_PERICENTER": 81.0104, "MEAN_ANOMALY": 279.1278, "EPHEMERIS_TYPE": 0, "CLASSIFICATION_TYPE": "U", "NORAD_CAT_ID": 51444, "ELEMENT_SET_NO": 999, "REV_AT_EPOCH": 21066, "BSTAR": 1.6961e-05, "MEAN_MOTION_DOT": 8.3e-07, "MEAN_MOTION_DDOT": 0}, "tle": {"line1": "1 51444U 22008A   25358.16539506  .00000083  00000+0  16961-4 0  9995", "line2": "2 51444  97.8803 179.3160 0001490  81.0104 279.1278 14.82153915210660"}}, "geometry": {"type": "Point", "coordinates": [-5.013902706467836, -29.899896578905913]}}]}